CUBESAT XI-V            
1 28895U 05043F   23019.34502783  .00003348  00000+0  63442-3 0  9990
2 28895  98.1305 152.8334 0016478 177.6349 182.4935 14.64868061919015
CUTE-1.7+APD II (CO-65) 
1 32785U 08021C   23019.73617907  .00006835  00000+0  70161-3 0  9990
2 32785  97.6866 349.2141 0011048 231.2596 128.7636 14.90667163798768
AAUSAT-II               
1 32788U 08021F   23020.46090166  .00012301  00000+0  99265-3 0  9998
2 32788  97.5537   3.6718 0010506 111.6338 248.6006 14.99958239801033
DELFI-C3 (DO-64)        
1 32789U 08021G   23020.28682564  .00040113  00000+0  17999-2 0  9993
2 32789  97.3210  44.4056 0006706 291.3718  68.6802 15.21054455804897
SEEDS II (CO-66)        
1 32791U 08021J   23019.67618522  .00010196  00000+0  95332-3 0  9996
2 32791  97.6382 354.4481 0012469 179.6017 180.5215 14.94250886799544
SWISSCUBE               
1 35932U 09051B   23019.56194285  .00002273  00000+0  51363-3 0  9996
2 35932  98.5411 246.2522 0008610 101.0355 259.1811 14.57226629707561
BEESAT-1                
1 35933U 09051C   23020.34126092  .00001801  00000+0  40961-3 0  9994
2 35933  98.5346 248.5166 0006741 108.8242 251.3687 14.57200222707837
ITUPSAT1                
1 35935U 09051E   23020.35536477  .00001661  00000+0  38590-3 0  9998
2 35935  98.5448 248.5264 0009005 113.9006 246.3135 14.56284594707477
TISAT 1                 
1 36799U 10035E   23020.39989358  .00007081  00000+0  66391-3 0  9997
2 36799  98.1563 244.2610 0012616  99.7836 260.4808 14.94282203680349
M-CUBED & EXP-1 PRIME   
1 37855U 11061F   23019.91681112  .00022914  00000+0  88246-3 0  9999
2 37855 101.7119 259.8275 0139050 131.3063 230.0223 15.17811188614478
AEROCUBE 4.5A           
1 38767U 12048K   23019.73571753  .00018599  00000+0  12642-2 0  9997
2 38767  64.6646 150.6532 0152238 202.2784 157.1672 14.97412472183139
AEROCUBE 4.5B           
1 38768U 12048L   23019.60265184  .00024191  00000+0  14603-2 0  9996
2 38768  64.6666 100.1969 0134206 197.4803 162.1674 15.03383667183597
STRAND-1                
1 39090U 13009E   23020.51524750  .00000694  00000+0  25638-3 0  9995
2 39090  98.3913 217.8830 0008841 351.9398   8.1644 14.35421287518558
BRITE-AUSTRIA           
1 39091U 13009F   23020.50484951  .00000478  00000+0  18123-3 0  9994
2 39091  98.3935 217.0771 0010387 357.9699   2.1443 14.35364945518577
SOMP                    
1 39134U 13015E   23019.48869774  .00056280  00000+0  14735-2 0  9990
2 39134  64.8587  68.9244 0025055 255.3006 104.5353 15.38062618540337
BEESAT-3                
1 39135U 13015F   23020.51524733  .00036935  00000+0  12253-2 0  9998
2 39135  64.8642 107.9015 0031469 253.4690 106.2985 15.30584584539672
BEESAT-2                
1 39136U 13015G   23019.55524875  .00035149  00000+0  12351-2 0  9993
2 39136  64.8728 120.7463 0026231 289.2843  70.5451 15.28886746539354
NEE-01 PEGASO           
1 39151U 13018B   23020.28730119  .00004003  00000+0  51421-3 0  9992
2 39151  98.0003 130.4439 0015361 273.0847  86.8607 14.81675328525789
ESTCUBE 1               
1 39161U 13021C   23020.43262267  .00003335  00000+0  52013-3 0  9993
2 39161  97.8896  96.8650 0010481  83.8550 276.3856 14.73514207521410
POPACS 1                
1 39268U 13055D   23020.27507019  .00026381  00000+0  63688-3 0  9993
2 39268  80.9952   4.9168 0536463 261.9270  92.0761 14.58905876486281
POPACS 2                
1 39269U 13055E   23020.08817804  .00016189  00000+0  42588-3 0  9990
2 39269  81.0095  69.0253 0627836  68.3523 298.3311 14.37900166482477
POPACS 3                
1 39270U 13055F   23020.48995597  .00016401  00000+0  48719-3 0  9991
2 39270  81.0147 105.6170 0677140 171.6118 189.7108 14.24917350480208
ZACUBE-1 (TSHEPISOSAT)  
1 39417U 13066B   23019.78521157  .00007321  00000+0  87232-3 0  9998
2 39417  97.6659 346.9897 0057952  56.1727 304.4985 14.83386250495180
WNISAT-1                
1 39423U 13066H   23020.53908973  .00001809  00000+0  36231-3 0  9993
2 39423  97.7218 250.6703 0173441 178.7759 181.3906 14.53799317485985
TRITON-1                
1 39427U 13066M   23020.37291027  .00005455  00000+0  84130-3 0  9996
2 39427  97.8301 311.9892 0108804 291.4122  67.5505 14.69835669490828
DELFI-N3XT              
1 39428U 13066N   23019.75317047  .00010131  00000+0  15143-2 0  9992
2 39428  97.8291 310.1097 0113353 306.2918  52.7861 14.70609307490481
GOMX-1                  
1 39430U 13066Q   23020.43283300  .00003186  00000+0  56497-3 0  9996
2 39430  97.7960 280.1264 0149119  80.4793 281.3215 14.60863353487963
CUBEBUG-2 (LO-74)       
1 39440U 13066AA  23019.64426012  .00004581  00000+0  61074-3 0  9994
2 39440  97.7553 333.5556 0078271 148.9563 211.6308 14.77951731493405
NEE-02 KRYSAOR          
1 39441U 13066AB  23020.11864486  .00003034  00000+0  42115-3 0  9997
2 39441  97.7667 331.0422 0080040 162.6422 197.7554 14.76418943493152
FUNCUBE-1 (AO-73)       
1 39444U 13066AE  23019.83325803  .00008195  00000+0  94626-3 0  9999
2 39444  97.6525 349.4876 0056259  43.0592 317.5005 14.84706919494200
UWE-3                   
1 39446U 13066AG  23020.10119328  .00005536  00000+0  69992-3 0  9990
2 39446  97.7158 340.2748 0069025 102.4991 258.3955 14.80545829493099
AEROCUBE 5A             
1 39465U 13072D   23020.11607084  .00161325  00000+0  50472-2 0  9991
2 39465 120.4798  54.2101 0145770 145.7502 215.3072 15.22423119182271
BRITE-CA1 (TORONTO)     
1 40020U 14033L   23020.42540989  .00002058  00000+0  35319-3 0  9993
2 40020  97.8010 173.7522 0085072 291.9494  67.2686 14.67404371459583
DUCHIFAT-1              
1 40021U 14033M   23020.39040272  .00009967  00000+0  91780-3 0  9990
2 40021  98.0397 340.1044 0013101  50.0669 310.1699 14.94868332467085
NANOSATC-BR1            
1 40024U 14033Q   23020.38071449  .00008937  00000+0  85533-3 0  9997
2 40024  98.0102 332.2423 0012634  56.2032 304.0388 14.93379868466858
QB50P1                  
1 40025U 14033R   23020.42058997  .00007024  00000+0  69969-3 0  9997
2 40025  97.9826 324.9051 0013219  66.0146 294.2454 14.91859708466601
QB50P2                  
1 40032U 14033Y   23020.06540401  .00006602  00000+0  66921-3 0  9997
2 40032  97.9563 319.0480 0012774  65.2076 295.0469 14.91184545466409
PERSEUS-M2              
1 40037U 14033AD  23019.66789264  .00003435  00000+0  38291-3 0  9998
2 40037  97.9046 305.7738 0015659  88.6777 271.6233 14.87635740465760
PERSEUS-M1              
1 40039U 14033AF  23019.58548437  .00003502  00000+0  39397-3 0  9999
2 40039  97.8925 303.0256 0015520  88.2623 272.0371 14.87246889465126
POLYITAN-1              
1 40042U 14033AJ  23020.41457286  .00008751  00000+0  86250-3 0  9999
2 40042  97.9937 326.4318 0015294  58.4591 301.8119 14.92189403466499
TIGRISAT                
1 40043U 14033AK  23020.47648813  .00003926  00000+0  56625-3 0  9996
2 40043  97.6538 203.1301 0058619 171.7776 188.4409 14.75627916461920
AEROCUBE 6A             
1 40045U 14033AM  23020.50878477  .00005469  00000+0  75914-3 0  9999
2 40045  97.6545 212.5257 0056380 158.0037 202.3613 14.77190728462051
AEROCUBE 6B             
1 40046U 14033AN  23020.48101783  .00006989  00000+0  95394-3 0  9998
2 40046  97.6475 210.9131 0054957 155.7296 204.6522 14.77860817462200
UKUBE-1                 
1 40074U 14037F   23020.53135082  .00006855  00000+0  78016-3 0  9992
2 40074  98.3576 277.3508 0003521 325.4774  34.6221 14.86547001462309
BRITE-PL2 (HEWELIUSZ)   
1 40119U 14049B   23020.25810629  .00003229  00000+0  37757-3 0  9990
2 40119  97.8823 118.7328 0015707 251.4960 108.4549 14.85717211456284
FIREBIRD 4              
1 40378U 15003C   23020.01477707  .00077321  00000+0  16660-2 0  9991
2 40378  99.0802 299.7643 0079037   7.8384 352.4072 15.40985809441638
GRIFEX                  
1 40379U 15003D   23020.27947458  .00032111  00000+0  95807-3 0  9994
2 40379  99.0858 282.9494 0103219  57.4922 303.6237 15.29388543440692
CP10 (EXOCUBE)          
1 40380U 15003E   23019.64740030  .00025179  00000+0  85713-3 0  9993
2 40380  99.0952 273.6863 0114623  87.7311 273.7040 15.24254071440046
EXACTVIEW 9             
1 40936U 15052G   23017.37850784  .00004274  00000+0  49372-3 0  9994
2 40936   6.0039  86.2164 0010766 305.6159  54.2966 14.77704906394900
AEROCUBE 5C             
1 40965U 15058B   23020.47780363  .00005262  00000+0  58922-3 0  9991
2 40965  64.7738 132.1227 0168361 127.4048 234.2520 14.78115117180991
AEROCUBE 7              
1 40966U 15058C   23020.02848255  .00006580  00000+0  72298-3 0  9994
2 40966  64.7727 130.2804 0166231 127.4160 234.2209 14.78826586180969
ATHENOXAT 1             
1 41168U 15077C   23020.06369059  .00065856  00000+0  21353-2 0  9990
2 41168  14.9989 276.6299 0008550  57.6117 339.7344 15.30128207393410
GALASSIA                
1 41170U 15077E   23019.35155665  .00033448  00000+0  12005-2 0  9995
2 41170  14.9873 276.5583 0008853  68.7281 291.3987 15.26596313393341
VELOX-II                
1 41171U 15077F   23019.56753630  .00025970  00000+0  11257-2 0  9994
2 41171  14.9919   1.1393 0007579 247.8906 112.0611 15.20152862392558
HORYU-4                 
1 41340U 16012D   23020.38563261  .00009684  00000+0  65611-3 0  9991
2 41340  31.0054  52.1357 0012837 201.4409 158.5691 15.05152132380417
E-ST@R-II               
1 41459U 16025D   23020.48293182  .00035801  00000+0  13304-2 0  9990
2 41459  98.1918 207.8500 0127844 249.7383 109.0032 15.20034401370381
AAUSAT 4                
1 41460U 16025E   23020.47906575  .00070839  00000+0  20057-2 0  9991
2 41460  98.1750 216.5913 0099010 217.0656 200.8561 15.31185552370996
BEESAT-4                
1 41619U 16040W   23019.54572877  .00052040  00000+0  13057-2 0  9990
2 41619  97.1876  70.0659 0008750  63.7665 296.4480 15.39811670353860
RAVAN                   
1 41849U 16067B   23020.36218930  .00011851  00000+0  88750-3 0  9991
2 41849  98.0134 169.1290 0017359 325.3783  34.6309 15.02761437338541
